STARLINK-31381          
1 59469U 24068Q   26068.24556679  .00000158  00000+0  15254-4 0  9993
2 59469  43.0026  33.6651 0001347 260.9479  99.1220 15.27584318108495
FLOCK 4G-21             
1 62651U 25009AU  26068.19487675  .00013648  00000+0  49619-3 0  9998
2 62651  97.4032 151.1274 0000465 329.5782  30.5431 15.28381075 63677
